CCSDS_OEM_VERS = 1.0
CREATION_DATE  = 2017-05-11T11:04:57
ORIGINATOR     = GMAT USER

META_START
OBJECT_NAME          = MOPSSat_alt_35785_km_RAAN_0_119
OBJECT_ID            = SatId
CENTER_NAME          = Earth
REF_FRAME            = EME2000
TIME_SYSTEM          = UTC
START_TIME           = 2017-01-01T00:00:00.000
USEABLE_START_TIME   = 2017-01-01T00:00:00.000
USEABLE_STOP_TIME    = 2017-01-02T00:00:00.000
STOP_TIME            = 2017-01-02T00:00:00.000
INTERPOLATION        = Lagrange
INTERPOLATION_DEGREE = 7 
META_STOP


                                                                                   

2017-01-01T21:23:20.000   1.344812001042266e+04  -3.158804516710314e+04   6.647420663375653e-01   2.965570093292103e+00   2.229882326127522e+00  -1.996459803986830e-04
2017-01-01T21:23:30.000   1.347776908142869e+04  -3.156573078470812e+04   6.627451125112824e-01   2.964243392260002e+00   2.232994147267465e+00  -1.997447572554401e-04
2017-01-01T21:23:40.000   1.350740486508063e+04  -3.154338528343417e+04   6.607471716692875e-01   2.962912735636773e+00   2.236106186806896e+00  -1.998433911421582e-04
2017-01-01T21:23:50.000   1.353702732210917e+04  -3.152100866089175e+04   6.587482452226869e-01   2.961578119567298e+00   2.239218439704476e+00  -1.999418816522971e-04
2017-01-01T21:24:00.000   1.356663641313411e+04  -3.149860091479658e+04   6.567483345915439e-01   2.960239540204105e+00   2.242330900897501e+00  -2.000402283786017e-04
2017-01-01T21:24:10.000   1.359623209884055e+04  -3.147616204283757e+04   6.547474411930332e-01   2.958896993699557e+00   2.245443565320365e+00  -2.001384309137046e-04
2017-01-01T21:24:20.000   1.362581433950485e+04  -3.145369204303163e+04   6.527455664732840e-01   2.957550476226880e+00   2.248556427854872e+00  -2.002364888485026e-04
2017-01-01T21:24:30.000   1.365538309538613e+04  -3.143119091343172e+04   6.507427118811288e-01   2.956199983962965e+00   2.251669483371207e+00  -2.003344017735088e-04
2017-01-01T21:24:40.000   1.368493832663890e+04  -3.140865865219195e+04   6.487388788739622e-01   2.954845513092224e+00   2.254782726718783e+00  -2.004321692785451e-04
2017-01-01T21:24:50.000   1.371447999333773e+04  -3.138609525755214e+04   6.467340689162216e-01   2.953487059805856e+00   2.257896152728696e+00  -2.005297909528730e-04
2017-01-01T21:25:00.000   1.374400805550588e+04  -3.136350072781357e+04   6.447282834773331e-01   2.952124620300304e+00   2.261009756216826e+00  -2.006272663852432e-04
2017-01-01T21:25:10.000   1.377352247312618e+04  -3.134087506133129e+04   6.427215240310012e-01   2.950758190776822e+00   2.264123531984949e+00  -2.007245951639464e-04
2017-01-01T21:25:20.000   1.380302320624702e+04  -3.131821825643430e+04   6.407137920480706e-01   2.949387767436776e+00   2.267237474831851e+00  -2.008217768771335e-04
2017-01-01T21:25:30.000   1.383251021491147e+04  -3.129553031147833e+04   6.387050890012717e-01   2.948013346484763e+00   2.270351579545896e+00  -2.009188111126105e-04
2017-01-01T21:25:40.000   1.386198345915747e+04  -3.127281122484637e+04   6.366954163652380e-01   2.946634924128703e+00   2.273465840905020e+00  -2.010156974578324e-04
2017-01-01T21:25:50.000   1.389144289908761e+04  -3.125006099489332e+04   6.346847756116784e-01   2.945252496576429e+00   2.276580253684143e+00  -2.011124355001544e-04
2017-01-01T21:26:00.000   1.392088849476414e+04  -3.122727962002832e+04   6.326731682165981e-01   2.943866060040778e+00   2.279694812644019e+00  -2.012090248264665e-04
2017-01-01T21:26:10.000   1.395032020619860e+04  -3.120446709872339e+04   6.306605956610369e-01   2.942475610740164e+00   2.282809512530097e+00  -2.013054650231687e-04
2017-01-01T21:26:20.000   1.397973799332155e+04  -3.118162342953424e+04   6.286470594330158e-01   2.941081144899751e+00   2.285924348069418e+00  -2.014017556760507e-04
2017-01-01T21:26:30.000   1.400914181596029e+04  -3.115874861112114e+04   6.266325610292246e-01   2.939682658752908e+00   2.289039313968098e+00  -2.014978963702417e-04
2017-01-01T21:26:40.000   1.403853163392484e+04  -3.113584264218070e+04   6.246171019490725e-01   2.938280148537028e+00   2.292154404920487e+00  -2.015938866904870e-04
2017-01-01T21:26:50.000   1.406790740662221e+04  -3.111290552175096e+04   6.226006837213430e-01   2.936873610512431e+00   2.295269615568098e+00  -2.016897262199046e-04
2017-01-01T21:27:00.000   1.409726909352433e+04  -3.108993724884281e+04   6.205833078719243e-01   2.935463040939634e+00   2.298384940549344e+00  -2.017854145414994e-04
2017-01-01T21:27:10.000   1.412661665399393e+04  -3.106693782257681e+04   6.185649759358043e-01   2.934048436087811e+00   2.301500374481032e+00  -2.018809512375980e-04
2017-01-01T21:27:20.000   1.415595004795982e+04  -3.104390724165471e+04   6.165456894106607e-01   2.932629792202350e+00   2.304615912030002e+00  -2.019763358920553e-04
2017-01-01T21:27:30.000   1.418526923524332e+04  -3.102084550488664e+04   6.145254498031527e-01   2.931207105537270e+00   2.307731547841654e+00  -2.020715680880520e-04
2017-01-01T21:27:40.000   1.421457417571120e+04  -3.099775261107241e+04   6.125042586184579e-01   2.929780372347997e+00   2.310847276556116e+00  -2.021666474086020e-04
2017-01-01T21:27:50.000   1.424386482889423e+04  -3.097462855929642e+04   6.104821173863182e-01   2.928349588909330e+00   2.313963092767899e+00  -2.022615734352768e-04
2017-01-01T21:28:00.000   1.427314115427104e+04  -3.095147334871016e+04   6.084590276417480e-01   2.926914751502339e+00   2.317078991055832e+00  -2.023563457491693e-04
2017-01-01T21:28:10.000   1.430240311126734e+04  -3.092828697853066e+04   6.064349909249841e-01   2.925475856414184e+00   2.320194965983056e+00  -2.024509639308762e-04
2017-01-01T21:28:20.000   1.433165065897660e+04  -3.090506944826766e+04   6.044100088010781e-01   2.924032899952527e+00   2.323311012067039e+00  -2.025454275596457e-04
2017-01-01T21:28:30.000   1.436088375653719e+04  -3.088182075741957e+04   6.023840828335675e-01   2.922585878426440e+00   2.326427123819931e+00  -2.026397362145482e-04
2017-01-01T21:28:40.000   1.439010236298366e+04  -3.085854090559291e+04   6.003572145948380e-01   2.921134788153914e+00   2.329543295732664e+00  -2.027338894740134e-04
2017-01-01T21:28:50.000   1.441930643790624e+04  -3.083522989197734e+04   5.983294056203942e-01   2.919679625429181e+00   2.332659522345241e+00  -2.028278869179147e-04
2017-01-01T21:29:00.000   1.444849594079128e+04  -3.081188771587061e+04   5.963006574545876e-01   2.918220386555447e+00   2.335775798176424e+00  -2.029217281254864e-04
2017-01-01T21:29:10.000   1.447767083117076e+04  -3.078851437656058e+04   5.942709716403021e-01   2.916757067837612e+00   2.338892117739614e+00  -2.030154126757927e-04
2017-01-01T21:29:20.000   1.450683106824240e+04  -3.076510987362386e+04   5.922403497451141e-01   2.915289665600711e+00   2.342008475502487e+00  -2.031089401465378e-04
2017-01-01T21:29:30.000   1.453597661115237e+04  -3.074167420670557e+04   5.902087933419133e-01   2.913818176176461e+00   2.345124865916944e+00  -2.032023101149467e-04
2017-01-01T21:29:40.000   1.456510741899453e+04  -3.071820737551773e+04   5.881763040088577e-01   2.912342595903078e+00   2.348241283419101e+00  -2.032955221577734e-04
2017-01-01T21:29:50.000   1.459422345053231e+04  -3.069470938006925e+04   5.861428833490414e-01   2.910862921140059e+00   2.351357722399313e+00  -2.033885758503846e-04
2017-01-01T21:30:00.000   1.462332466457423e+04  -3.067118022035814e+04   5.841085329640601e-01   2.909379148248596e+00   2.354474177242520e+00  -2.034814707679907e-04
2017-01-01T21:30:10.000   1.465241101982580e+04  -3.064761989649249e+04   5.820732544644152e-01   2.907891273599279e+00   2.357590642312355e+00  -2.035742064851618e-04
2017-01-01T21:30:20.000   1.468148247554605e+04  -3.062402840815907e+04   5.800370494235948e-01   2.906399293538600e+00   2.360707112021440e+00  -2.036667825779649e-04
2017-01-01T21:30:30.000   1.471053899089098e+04  -3.060040575515465e+04   5.779999194239923e-01   2.904903204422501e+00   2.363823580761066e+00  -2.037591986218281e-04
2017-01-01T21:30:40.000   1.473958052506234e+04  -3.057675193726666e+04   5.759618660465460e-01   2.903403002608921e+00   2.366940042917077e+00  -2.038514541920335e-04
2017-01-01T21:30:50.000   1.476860703692953e+04  -3.055306695457533e+04   5.739228908970119e-01   2.901898684476702e+00   2.370056492829498e+00  -2.039435488624599e-04
2017-01-01T21:31:00.000   1.479761848531097e+04  -3.052935080723085e+04   5.718829955865019e-01   2.900390246411790e+00   2.373172924822493e+00  -2.040354822065358e-04
2017-01-01T21:31:10.000   1.482661482897340e+04  -3.050560349545176e+04   5.698421817314371e-01   2.898877684807056e+00   2.376289333204357e+00  -2.041272537972173e-04
2017-01-01T21:31:20.000   1.485559602635506e+04  -3.048182501975755e+04   5.678004509732963e-01   2.897360996077432e+00   2.379405712237542e+00  -2.042188632061686e-04
2017-01-01T21:31:30.000   1.488456203593947e+04  -3.045801538065737e+04   5.657578049520744e-01   2.895840176639844e+00   2.382522056179008e+00  -2.043103100048914e-04
2017-01-01T21:31:40.000   1.491351281610520e+04  -3.043417457877468e+04   5.637142453169262e-01   2.894315222921264e+00   2.385638359264018e+00  -2.044015937642685e-04
2017-01-01T21:31:50.000   1.494244832579025e+04  -3.041030261430041e+04   5.616697736792863e-01   2.892786131323779e+00   2.388754615777619e+00  -2.044927140566258e-04
2017-01-01T21:32:00.000   1.497136852382601e+04  -3.038639948754119e+04   5.596243916598679e-01   2.891252898259664e+00   2.391870819982967e+00  -2.045836704536650e-04
2017-01-01T21:32:10.000   1.500027336910939e+04  -3.036246519877831e+04   5.575781008765456e-01   2.889715520142424e+00   2.394986966139809e+00  -2.046744625270006e-04
2017-01-01T21:32:20.000   1.502916282013966e+04  -3.033849974864650e+04   5.555309029769296e-01   2.888173993410928e+00   2.398103048454719e+00  -2.047650898467131e-04
